GLOBALSTAR M023         
1 25621U 99004A   24186.03012251 -.00000037  00000+0  37030-3 0  9999
2 25621  52.0120  33.5584 0010998  78.7264  85.5299 12.62461053171846
GLOBALSTAR M040         
1 25622U 99004B   24186.02560852 -.00000062  00000+0  23276-3 0  9999
2 25622  51.9929  37.2102 0001227  38.8408 113.5500 12.61976673171598
GLOBALSTAR M036         
1 25623U 99004C   24185.96067270 -.00000046  00000+0  52975-3 0  9998
2 25623  51.9973  78.1481 0011658 100.0063 272.7942 11.86569087137649
GLOBALSTAR M038         
1 25624U 99004D   24186.21602619 -.00000082  00000+0  10924-3 0  9998
2 25624  51.9994 353.6688 0002512  64.8830 106.3624 12.32502215159422
GLOBALSTAR M022         
1 25649U 99012A   24186.21513130 -.00000092  00000+0 -57344-4 0  9993
2 25649  52.0016 156.8356 0002251 204.3490 257.4359 12.02484807134591
GLOBALSTAR M041         
1 25650U 99012B   24185.82422093 -.00000128  00000+0 -54560-3 0  9994
2 25650  52.0035  28.7275 0002693  15.3273 344.7645 11.96655467136572
GLOBALSTAR M046         
1 25651U 99012C   24185.89366817 -.00000058  00000+0  34099-3 0  9999
2 25651  52.0044 120.5573 0002142 290.4815  92.1476 12.09394157141878
GLOBALSTAR M037         
1 25652U 99012D   24185.96095719 -.00000083  00000+0  11376-3 0  9999
2 25652  51.9978 164.5159 0001740 131.4220 246.5321 12.62409987167293
